COSMOS 2361             
1 25590U 98076A   09162.04383387  .00000030  00000-0  15969-4 0   601
2 25590  82.9311 119.6153 0033150 100.0740 260.4153 13.72704467524189
COSMOS 2378             
1 26818U 01023A   09161.51117655  .00000028  00000-0  13551-4 0   506
2 26818  82.9253 146.9143 0034722  70.1490 290.3403 13.73734806401416
COSMOS 2389             
1 27436U 02026A   09161.34775084 -.00000009  00000-0 -24697-4 0  7808
2 27436  82.9494  87.6888 0045759 322.3865  37.4093 13.74732789353035
COSMOS 2398             
1 27818U 03023A   09161.15331936  .00000036  00000-0  22861-4 0  6384
2 27818  82.9478  34.0318 0030064 295.5090  64.2956 13.71954923301288
COSMOS 2407             
1 28380U 04028A   09160.65996323  .00000043  00000-0  28510-4 0  4558
2 28380  82.9590 356.4012 0039419 354.6665   5.4075 13.75842977245159
COSMOS 2414             
1 28521U 05002A   09161.75139016  .00000016  00000-0  22000-6 0  3704
2 28521  82.9490  61.9868 0041720  45.0717 315.3805 13.87346268222209
COSMOS 2429             
1 32052U 07038A   09162.21986214  .00000048  00000-0  34951-4 0  5535
2 32052  82.9786 104.3561 0037371 306.5179  53.2537 13.74692554 87743
